OBJECT_NAME,OBJECT_ID,EPOCH,MEAN_MOTION,ECCENTRICITY,INCLINATION,RA_OF_ASC_NODE,ARG_OF_PERICENTER,MEAN_ANOMALY,EPHEMERIS_TYPE,CLASSIFICATION_TYPE,NORAD_CAT_ID,ELEMENT_SET_NO,REV_AT_EPOCH,BSTAR,MEAN_MOTION_DOT,MEAN_MOTION_DDOT
GEOSCAN 3 (RS92S3),2025-155T,2026-06-11T17:14:08.725056,15.35215068,.0005913,97.4529,132.5317,177.8799,182.2471,0,U,64893,999,8001,.50835E-3,.17325E-3,0
INNOSAT 3 (RS92S0),2025-155U,2026-06-11T20:49:08.065344,15.43456589,.00056,97.4476,134.2371,164.2106,195.9317,0,U,64894,999,8014,.77856E-3,.34881E-3,0
KNACKSAT-2,1998-067XZ,2026-06-11T17:05:46.404960,15.59478995,.0009845,51.6308,322.0071,191.1847,168.8928,0,U,67683,999,1942,.58268E-3,.46941E-3,0
