GEOSCAN 3 (RS92S3)      
1 64893U 25155T   26162.71815654  .00017325  00000+0  50835-3 0  9993
2 64893  97.4529 132.5317 0005913 177.8799 182.2471 15.35215068 80016
INNOSAT 3 (RS92S0)      
1 64894U 25155U   26162.86745446  .00034881  00000+0  77856-3 0  9999
2 64894  97.4476 134.2371 0005600 164.2106 195.9317 15.43456589 80140
KNACKSAT-2              
1 67683U 98067XZ  26162.71234265  .00046941  00000+0  58268-3 0  9992
2 67683  51.6308 322.0071 0009845 191.1847 168.8928 15.59478995 19427
